{
  "type": "FeatureCollection",
  "name": "sample_parcels",
  "crs": {
    "type": "name",
    "properties": {
      "name": "urn:ogc:def:crs:OGC:1.3:CRS84"
    }
  },
  "features": [
    {
      "type": "Feature",
      "properties": {
        "parcel_id": "GIS_P001",
        "source_layer": "PARCEL",
        "area_m2": 10000.0,
        "area_ha": 1.0,
        "geometry_status": "VALID"
      },
      "geometry": {
        "type": "Polygon",
        "coordinates": [
          [
            [
              0.0,
              0.0
            ],
            [
              100.0,
              0.0
            ],
            [
              100.0,
              100.0
            ],
            [
              0.0,
              100.0
            ],
            [
              0.0,
              0.0
            ]
          ]
        ]
      }
    },
    {
      "type": "Feature",
      "properties": {
        "parcel_id": "GIS_P002",
        "source_layer": "PARCEL",
        "area_m2": 4800.0,
        "area_ha": 0.48,
        "geometry_status": "VALID"
      },
      "geometry": {
        "type": "Polygon",
        "coordinates": [
          [
            [
              120.0,
              0.0
            ],
            [
              200.0,
              0.0
            ],
            [
              200.0,
              60.0
            ],
            [
              120.0,
              60.0
            ],
            [
              120.0,
              0.0
            ]
          ]
        ]
      }
    }
  ]
}